satname,norad_id,inclination_deg,eccentricity,mean_motion_rev_per_day,perigee_km,apogee_km,l1,l2
STARLINK-1008,44714,53.0884,0.0002087,15.15594104,517.736031215466,520.6149694531041,1 44714U 19074B   26016.58336806  .00120136  00000+0  61648-2 0  9994,2 44714  53.0884  60.3961 0002087 107.2976 116.9117 15.15594104  5831
STARLINK-1012,44718,53.0885,3.01e-05,15.15445516,519.4187202699441,519.8339656231901,1 44718U 19074F   26016.58336806  .00121408  00000+0  62550-2 0  9994,2 44718  53.0885  60.4019 0000301 302.5904  37.4422 15.15445516  5826
STARLINK-1017,44723,53.0487,0.0001624,15.20014834,504.67787529078396,506.9137766726626,1 44723U 19074L   26016.40194882  .00010495  00000+0  49507-3 0  9998,2 44723  53.0487  51.9113 0001624 163.0292 197.0758 15.20014834341008
STARLINK-1019,44724,53.0488,0.0009253,15.64728446,367.77208698003324,380.2676284609306,1 44724U 19074M   26016.58336806  .00146150  00000+0  14533-2 0  9990,2 44724  53.0488  35.6447 0009253   9.0368 314.2606 15.64728446  5728
STARLINK-1020,44725,53.0545,0.0001165,15.06404289,546.3916112266043,548.0052143777875,1 44725U 19074N   26016.60235077 -.00000098  00000+0  12329-4 0  9996,2 44725  53.0545  80.4495 0001165  86.6063 273.5059 15.06404289340612
STARLINK-1031,44736,53.0448,0.0005168,15.69323602,357.35000091854636,364.31540000094174,1 44736U 19074Z   26016.58336806  .00162213  00000+0  13382-2 0  9992,2 44736  53.0448  21.4708 0005168  44.1591  13.2384 15.69323602  5953
STARLINK-1036,44741,53.0548,0.0001497,15.37142941,453.53991194979153,455.58562226006234,1 44741U 19074AE  26016.58336806  .01841361  00000+0  44761-1 0  9991,2 44741  53.0548  78.5534 0001497  74.7465 320.8649 15.37142941  5681
STARLINK-1039,44744,53.0498,0.000285,15.17312021,512.0041264364536,515.9326265010413,1 44744U 19074AH  26016.58292916  .00012163  00000+0  61724-3 0  9996,2 44744  53.0498  93.7696 0002850  45.2560 314.8665 15.17312021340431
STARLINK-1042,44747,53.0469,0.0003472,15.46901317,423.434825471576,428.1594773463139,1 44747U 19074AL  26016.30669078  .00018521  00000+0  36977-3 0  9992,2 44747  53.0469 345.5796 0003472  41.9663 318.1609 15.46901317341956
STARLINK-1043,44748,53.0546,0.0001872,15.47787516,421.9265927455763,424.4730132446184,1 44748U 19074AM  26016.48210583  .00015845  00000+0  30819-3 0  9990,2 44748  53.0546  85.5863 0001872 317.7282  42.3580 15.47787516340544
STARLINK-1046,44751,53.0553,0.0001606,15.37698399,451.8201641562355,454.0142987753825,1 44751U 19074AQ  26016.60021469  .00038885  00000+0  10402-2 0  9995,2 44751  53.0553  97.4544 0001606  41.3714 318.7410 15.37698399340382
STARLINK-1047,44752,53.0722,0.0004309,15.31216225,469.23068033351956,475.1342856639676,1 44752U 19074AR  26016.23860893  .00008144  00000+0  27801-3 0  9994,2 44752  53.0722  30.7892 0004309  62.4396 297.7042 15.31216225341308
STARLINK-1048,44753,53.054,9.71e-05,15.40663816,443.48652020743975,444.8114081416834,1 44753U 19074AS  26016.58336806  .00087765  00000+0  21051-2 0  9991,2 44753  53.0540  58.0173 0000971  88.2555 151.1569 15.40663816  5830
STARLINK-1053,44758,53.0369,0.0003639,15.73379822,346.7974474305347,351.69363644455643,1 44758U 19074AX  26016.15844853  .00073103  00000+0  51654-3 0  9999,2 44758  53.0369 347.6693 0003639  67.0968 293.0434 15.73379822341898
STARLINK-1060,44765,53.0415,0.0003546,15.90526487,298.4402147130786,303.17692291048024,1 44765U 19074BE  26016.58336806  .00246669  33456-4  79318-3 0  9990,2 44765  53.0415  26.9667 0003546  10.9519 306.6108 15.90526487  6013
STARLINK-1063,44768,53.0638,0.000187,15.09787463,535.5557858447855,538.1419905669745,1 44768U 19074BH  26016.58336806  .00051468  00000+0  31455-2 0  9997,2 44768  53.0638 100.5219 0001870  97.9628 137.2709 15.09787463  5825
STARLINK-1067,44771,53.0549,0.0003171,15.44766546,429.9046021292961,434.22363167763615,1 44771U 19074BL  26016.50227281  .00062403  00000+0  13113-2 0  9991,2 44771  53.0549  94.9732 0003171  22.9829 337.1318 15.44766546340415
STARLINK-1068,44772,53.0543,0.0007655,15.44853682,426.59501963680304,437.0210454816515,1 44772U 19074BM  26016.42857656  .00051704  00000+0  10854-2 0  9999,2 44772  53.0543  73.2071 0007655  14.1114 346.0104 15.44853682340709
STARLINK-1112,44925,53.0445,0.0002414,15.76718945,338.1224716661045,341.3658646941012,1 44925U 20001M   26016.58336806  .00144923  00000+0  87465-3 0  9996,2 44925  53.0445 146.6228 0002414 185.0256 122.2552 15.76718945  6013
STARLINK-1114,44927,53.0537,9.77e-05,15.41145117,442.06208766380496,443.39488477981195,1 44927U 20001P   26016.58336806  .00071848  00000+0  17014-2 0  9995,2 44927  53.0537 217.7699 0000977  92.8580  13.7736 15.41145117  5830
STARLINK-1123,44930,53.0548,0.0001443,15.06395479,546.2260843904214,548.2247439831563,1 44930U 20001S   26015.97759032  .00000924  00000+0  80933-4 0  9990,2 44930  53.0548 223.2526 0001443  95.3519 264.7635 15.06395479331901
STARLINK-1144,44933,53.0345,0.0006179,15.89779395,298.7726357863303,307.0290623602141,1 44933U 20001V   26016.58336806  .00230667  30428-4  77027-3 0  9991,2 44933  53.0345 118.2871 0006179 334.5371  59.3260 15.89779395  6040
STARLINK-1094,44941,53.0538,0.0002017,15.0650936,545.4796303608791,548.273180768685,1 44941U 20001AD  26016.52113816  .00013308  00000+0  90795-3 0  9994,2 44941  53.0538 200.8128 0002017  80.8735 279.2482 15.06509360332265
STARLINK-1122,44949,53.0552,0.000133,15.06395822,546.3032898748597,548.1454359974014,1 44949U 20001AM  26015.74721643 -.00000728  00000+0 -30016-4 0  9993,2 44949  53.0552 204.2846 0001330  92.4668 267.6474 15.06395822332140
STARLINK-1080,44961,53.0546,0.0001485,15.39833776,445.5869507764164,447.61389779142974,1 44961U 20001AZ  26016.42518292  .00083519  00000+0  20605-2 0  9995,2 44961  53.0546 176.5042 0001485 294.5869  65.4980 15.39833776332603
STARLINK-1090,44968,53.0552,0.0001334,15.06399127,546.2903917042777,548.1380754133907,1 44968U 20001BG  26016.47887274  .00000823  00000+0  74153-4 0  9992,2 44968  53.0552 181.0021 0001334  87.6913 272.4229 15.06399127332549
STARLINK-1132,45044,53.1591,0.0001049,15.2921319,477.44386467295226,478.8823164319492,1 45044U 20006A   26016.58336806  .01975965  00000+0  62165-1 0  9991,2 45044  53.1591 139.4672 0001049  64.9242 232.7534 15.29213190  5831
STARLINK-1131,45047,53.0553,0.0001342,15.06401657,546.277098381639,548.1358605715304,1 45047U 20006D   26016.54713029  .00000800  00000+0  72565-4 0  9990,2 45047  53.0553 161.2383 0001342  91.2692 268.8451 15.06401657328592
STARLINK-1134,45048,53.0363,0.0003459,15.36707739,453.4888617645938,458.2166158659056,1 45048U 20006E   26016.59100851  .00036762  00000+0  10160-2 0  9996,2 45048  53.0363 124.7973 0003459  52.7955 307.3362 15.36707739329118
STARLINK-1156,45054,53.0558,0.0001604,15.06404562,546.0867524346049,548.3083997666181,1 45054U 20006L   26016.65026442  .00000934  00000+0  81580-4 0  9991,2 45054  53.0558 160.2347 0001604  87.2298 272.8875 15.06404562328618
STARLINK-1159,45057,53.0484,0.0003234,15.64776209,371.6988526976329,376.0660588816381,1 45057U 20006P   26016.60677633  .00152718  00000+0  15168-2 0  9998,2 45057  53.0484 133.5785 0003234 248.0928 111.9743 15.64776209328998
STARLINK-1166,45060,53.0543,0.0001524,15.29057844,477.5824930808458,479.6724348894677,1 45060U 20006S   26016.58336806  .01785637  00000+0  56079-1 0  9991,2 45060  53.0543 159.4842 0001524  89.8094 308.7386 15.29057844  5836
STARLINK-1169,45061,53.0552,0.0001147,15.06400609,546.4153541761107,548.004028707127,1 45061U 20006T   26016.55075353  .00000283  00000+0  37903-4 0  9990,2 45061  53.0552 160.6802 0001147  80.8186 279.2933 15.06400609328600
STARLINK-1171,45062,53.0498,0.0008569,15.46526594,421.0649351167913,432.72740096017606,1 45062U 20006U   26016.62507662  .00110777  00000+0  21693-2 0  9999,2 45062  53.0498 140.1731 0008569 188.3477 171.7389 15.46526594328906
STARLINK-1133,45064,53.1404,0.0001113,15.26370254,485.90984959938214,487.43795650640186,1 45064U 20006W   26016.58336806  .01341458  00000+0  46282-1 0  9999,2 45064  53.1404 139.7486 0001113 103.1670 159.1310 15.26370254  5831
STARLINK-1167,45071,53.1516,0.0001779,15.27955916,480.703294286056,483.14410388278975,1 45071U 20006AD  26016.58336806  .01301414  00000+0  42932-1 0  9993,2 45071  53.1516 139.5695 0001779 115.8574 105.1503 15.27955916  5801
STARLINK-1168,45072,53.153,0.0001809,15.28214052,479.9103274822719,482.3920179431598,1 45072U 20006AE  26016.58336806  .01346836  00000+0  43940-1 0  9991,2 45072  53.1530 139.6322 0001809 111.2204  55.0361 15.28214052  5805
STARLINK-1172,45074,53.1406,0.0001498,15.26422424,485.4891601119807,487.5458105957923,1 45074U 20006AG  26016.58336806  .01370623  00000+0  47824-1 0  9999,2 45074  53.1406 139.7991 0001498  60.2324 314.3726 15.26422424  5574
STARLINK-1153,45080,53.1612,0.0001447,15.29368193,476.707781212368,478.69186038830867,1 45080U 20006AN  26016.58336806 -.00042975  00000+0 -14850-2 0  9997,2 45080  53.1612 139.4907 0001447  85.5753 219.3057 15.29368193  5839
STARLINK-1151,45081,53.0538,0.0005332,15.48357046,417.90629983500367,425.1574667321365,1 45081U 20006AP  26016.57460177  .00128478  00000+0  23565-2 0  9990,2 45081  53.0538 131.7286 0005332 320.5977  39.4642 15.48357046329014
STARLINK-1185,45087,53.0559,0.0001296,15.06394249,546.3316565236137,548.1267114385,1 45087U 20006AV  26016.52863251  .00001007  00000+0  86489-4 0  9995,2 45087  53.0559 120.7814 0001296  91.6505 268.4632 15.06394249329165
STARLINK-1183,45088,53.0551,0.0001103,15.06401077,546.444391508503,547.9721226722177,1 45088U 20006AW  26016.55074522  .00000547  00000+0  55606-4 0  9999,2 45088  53.0551 120.6828 0001103  93.2666 266.8449 15.06401077329161
STARLINK-1152,45096,53.0424,0.0003103,15.32190849,467.1524379104003,471.40194315704593,1 45096U 20006BE  26016.51597929  .00026758  00000+0  85762-3 0  9992,2 45096  53.0424  91.3435 0003103  46.3273 313.7984 15.32190849329574
